start=new Date('2021-09-19T00:00:00.000Z').valueOf();
sats=[{"INCLINATION":"53.0432","COUNTRY_CODE":"US","LAUNCH_DATE":"2021-02-16","REF_FRAME":"TEME","RCS_SIZE":"LARGE","ECCENTRICITY":"0.00042920","OBJECT_NAME":"STARLINK-2043","MEAN_MOTION_DDOT":"0.0000000000000","ARG_OF_PERICENTER":"4.4896","BSTAR":"-0.00011109000000","ELEMENT_SET_NO":"999","SITE":"AFETR","EPOCH":"2021-09-19T00:00:00.999648","PERIAPSIS":"346.811","OBJECT_ID":"2021-012AR","OBJECT_TYPE":"PAYLOAD","FILE":"3118781","NORAD_CAT_ID":"47659","CENTER_NAME":"EARTH","GP_ID":"184973636","APOAPSIS":"352.587","MEAN_MOTION":"15.73221452","SEMIMAJOR_AXIS":"6727.834","REV_AT_EPOCH":"367","MEAN_MOTION_DOT":"-0.00016212","DECAY_DATE":null,"CLASSIFICATION_TYPE":"U","TLE_LINE2":"2 47659  53.0432 113.5788 0004292   4.4896  42.7611 15.73221452  3670","EPHEMERIS_TYPE":"0","RA_OF_ASC_NODE":"113.5788","PERIOD":"91.532","TIME_SYSTEM":"UTC","TLE_LINE1":"1 47659U 21012AR  21262.00001157 -.00016212  00000-0 -11109-3 0  9993","MEAN_ELEMENT_THEORY":"SGP4","MEAN_ANOMALY":"42.7611"},{"MEAN_MOTION_DOT":"0.00010402","SEMIMAJOR_AXIS":"6727.757","REV_AT_EPOCH":"367","MEAN_MOTION":"15.73248519","APOAPSIS":"351.871","CENTER_NAME":"EARTH","GP_ID":"184973887","TLE_LINE2":"2 47660  53.0439 113.5794 0003343   8.8572  43.5303 15.73248519  3671","EPHEMERIS_TYPE":"0","CLASSIFICATION_TYPE":"U","DECAY_DATE":null,"TIME_SYSTEM":"UTC","PERIOD":"91.530","RA_OF_ASC_NODE":"113.5794","MEAN_ANOMALY":"43.5303","MEAN_ELEMENT_THEORY":"SGP4","TLE_LINE1":"1 47660U 21012AS  21262.00001157  .00010402  00000-0  78276-4 0  9997","INCLINATION":"53.0439","REF_FRAME":"TEME","RCS_SIZE":"MEDIUM","LAUNCH_DATE":"2021-02-16","COUNTRY_CODE":"US","ELEMENT_SET_NO":"999","BSTAR":"0.00007827600000","MEAN_MOTION_DDOT":"0.0000000000000","ARG_OF_PERICENTER":"8.8572","OBJECT_NAME":"STARLINK-2044","ECCENTRICITY":"0.00033430","FILE":"3118781","NORAD_CAT_ID":"47660","OBJECT_TYPE":"PAYLOAD","OBJECT_ID":"2021-012AS","PERIAPSIS":"347.373","EPOCH":"2021-09-19T00:00:00.999648","SITE":"AFETR"},{"INCLINATION":"53.0543","REF_FRAME":"TEME","RCS_SIZE":"LARGE","COUNTRY_CODE":"US","LAUNCH_DATE":"2021-02-16","ARG_OF_PERICENTER":"55.2604","MEAN_MOTION_DDOT":"0.0000000000000","BSTAR":"-0.00158220000000","ELEMENT_SET_NO":"999","ECCENTRICITY":"0.00020010","OBJECT_NAME":"STARLINK-2051","OBJECT_TYPE":"PAYLOAD","FILE":"3118781","NORAD_CAT_ID":"47661","SITE":"AFETR","EPOCH":"2021-09-19T00:00:00.999648","PERIAPSIS":"545.815","OBJECT_ID":"2021-012AT","SEMIMAJOR_AXIS":"6925.335","REV_AT_EPOCH":"357","MEAN_MOTION_DOT":"-0.00023774","CENTER_NAME":"EARTH","GP_ID":"184974138","APOAPSIS":"548.586","MEAN_MOTION":"15.06404317","TLE_LINE2":"2 47661  53.0543 181.0355 0002001  55.2604 329.0241 15.06404317  3571","EPHEMERIS_TYPE":"0","DECAY_DATE":null,"CLASSIFICATION_TYPE":"U","RA_OF_ASC_NODE":"181.0355","PERIOD":"95.592","TIME_SYSTEM":"UTC","MEAN_ELEMENT_THEORY":"SGP4","MEAN_ANOMALY":"329.0241","TLE_LINE1":"1 47661U 21012AT  21262.00001157 -.00023774  00000-0 -15822-2 0  9992"},{"TIME_SYSTEM":"UTC","PERIOD":"95.592","RA_OF_ASC_NODE":"181.0466","TLE_LINE1":"1 47662U 21012AU  21262.00001157 -.00023876  00000-0 -15891-2 0  9992","MEAN_ANOMALY":"70.9937","MEAN_ELEMENT_THEORY":"SGP4","MEAN_MOTION":"15.06404606","APOAPSIS":"548.526","CENTER_NAME":"EARTH","GP_ID":"184974889","MEAN_MOTION_DOT":"-0.00023876","REV_AT_EPOCH":"357","SEMIMAJOR_AXIS":"6925.334","DECAY_DATE":null,"CLASSIFICATION_TYPE":"U","EPHEMERIS_TYPE":"0","TLE_LINE2":"2 47662  53.0551 181.0466 0001915  58.3647  70.9937 15.06404606  3573","OBJECT_NAME":"STARLINK-2052","ECCENTRICITY":"0.00019150","ELEMENT_SET_NO":"999","BSTAR":"-0.00158910000000","MEAN_MOTION_DDOT":"0.0000000000000","ARG_OF_PERICENTER":"58.3647","OBJECT_ID":"2021-012AU","PERIAPSIS":"545.873","EPOCH":"2021-09-19T00:00:00.999648","SITE":"AFETR","FILE":"3118781","NORAD_CAT_ID":"47662","OBJECT_TYPE":"PAYLOAD","INCLINATION":"53.0551","LAUNCH_DATE":"2021-02-16","COUNTRY_CODE":"US","REF_FRAME":"TEME","RCS_SIZE":"MEDIUM"},{"GP_ID":"184973136","CENTER_NAME":"EARTH","MEAN_MOTION":"15.73230072","APOAPSIS":"352.512","SEMIMAJOR_AXIS":"6727.809","REV_AT_EPOCH":"367","MEAN_MOTION_DOT":"-0.00015507","DECAY_DATE":null,"CLASSIFICATION_TYPE":"U","EPHEMERIS_TYPE":"0","TLE_LINE2":"2 47663  53.0436 113.5852 0004218 359.2033  48.6812 15.73230072  3679","RA_OF_ASC_NODE":"113.5852","TIME_SYSTEM":"UTC","PERIOD":"91.531","TLE_LINE1":"1 47663U 21012AV  21262.00001157 -.00015507  00000-0 -10602-3 0  9991","MEAN_ANOMALY":"48.6812","MEAN_ELEMENT_THEORY":"SGP4","INCLINATION":"53.0436","LAUNCH_DATE":"2021-02-16","COUNTRY_CODE":"US","RCS_SIZE":"LARGE","REF_FRAME":"TEME","ECCENTRICITY":"0.00042180","OBJECT_NAME":"STARLINK-2053","ARG_OF_PERICENTER":"359.2033","MEAN_MOTION_DDOT":"0.0000000000000","BSTAR":"-0.00010602000000","ELEMENT_SET_NO":"999","PERIAPSIS":"346.837","EPOCH":"2021-09-19T00:00:00.999648","SITE":"AFETR","OBJECT_ID":"2021-012AV","OBJECT_TYPE":"PAYLOAD","NORAD_CAT_ID":"47663","FILE":"3118781"},{"ELEMENT_SET_NO":"999","ARG_OF_PERICENTER":"61.7582","MEAN_MOTION_DDOT":"0.0000000000000","BSTAR":"-0.00163320000000","OBJECT_NAME":"STARLINK-2054","ECCENTRICITY":"0.00021290","FILE":"3118781","NORAD_CAT_ID":"47664","OBJECT_TYPE":"PAYLOAD","OBJECT_ID":"2021-012AW","EPOCH":"2021-09-19T00:00:00.999648","SITE":"AFETR","PERIAPSIS":"545.726","INCLINATION":"53.0549","REF_FRAME":"TEME","RCS_SIZE":"LARGE","COUNTRY_CODE":"US","LAUNCH_DATE":"2021-02-16","PERIOD":"95.592","TIME_SYSTEM":"UTC","RA_OF_ASC_NODE":"181.0533","MEAN_ELEMENT_THEORY":"SGP4","MEAN_ANOMALY":"62.5278","TLE_LINE1":"1 47664U 21012AW  21262.00001157 -.00024529  00000-0 -16332-2 0  9991","MEAN_MOTION_DOT":"-0.00024529","SEMIMAJOR_AXIS":"6925.335","REV_AT_EPOCH":"357","APOAPSIS":"548.674","MEAN_MOTION":"15.06404432","CENTER_NAME":"EARTH","GP_ID":"184973387","TLE_LINE2":"2 47664  53.0549 181.0533 0002129  61.7582  62.5278 15.06404432  3573","EPHEMERIS_TYPE":"0","DECAY_DATE":null,"CLASSIFICATION_TYPE":"U"},{"MEAN_MOTION":"15.06421977","APOAPSIS":"550.774","CENTER_NAME":"EARTH","GP_ID":"184974639","MEAN_MOTION_DOT":"-0.00024809","SEMIMAJOR_AXIS":"6925.281","REV_AT_EPOCH":"357","CLASSIFICATION_TYPE":"U","DECAY_DATE":null,"TLE_LINE2":"2 47665  53.0489 176.0609 0005238 193.2781  63.6414 15.06421977  3578","EPHEMERIS_TYPE":"0","TIME_SYSTEM":"UTC","PERIOD":"95.591","RA_OF_ASC_NODE":"176.0609","TLE_LINE1":"1 47665U 21012AX  21262.00001157 -.00024809  00000-0 -16508-2 0  9998","MEAN_ANOMALY":"63.6414","MEAN_ELEMENT_THEORY":"SGP4","INCLINATION":"53.0489","LAUNCH_DATE":"2021-02-16","COUNTRY_CODE":"US","REF_FRAME":"TEME","RCS_SIZE":"LARGE","OBJECT_NAME":"STARLINK-2056","ECCENTRICITY":"0.00052380","ELEMENT_SET_NO":"999","ARG_OF_PERICENTER":"193.2781","MEAN_MOTION_DDOT":"0.0000000000000","BSTAR":"-0.00165080000000","OBJECT_ID":"2021-012AX","PERIAPSIS":"543.519","EPOCH":"2021-09-19T00:00:00.999648","SITE":"AFETR","FILE":"3118781","NORAD_CAT_ID":"47665","OBJECT_TYPE":"PAYLOAD"},{"CLASSIFICATION_TYPE":"U","DECAY_DATE":null,"EPHEMERIS_TYPE":"0","TLE_LINE2":"2 47666  53.0547 176.0387 0001737  54.5690  22.3520 15.06421648  3581","MEAN_MOTION":"15.06421648","APOAPSIS":"548.350","GP_ID":"184974389","CENTER_NAME":"EARTH","MEAN_MOTION_DOT":"-0.00027186","REV_AT_EPOCH":"358","SEMIMAJOR_AXIS":"6925.282","TLE_LINE1":"1 47666U 21012AY  21262.00001157 -.00027186  00000-0 -18121-2 0  9993","MEAN_ANOMALY":"22.3520","MEAN_ELEMENT_THEORY":"SGP4","TIME_SYSTEM":"UTC","PERIOD":"95.591","RA_OF_ASC_NODE":"176.0387","LAUNCH_DATE":"2021-02-16","COUNTRY_CODE":"US","REF_FRAME":"TEME","RCS_SIZE":"MEDIUM","INCLINATION":"53.0547","OBJECT_ID":"2021-012AY","PERIAPSIS":"545.944","EPOCH":"2021-09-19T00:00:00.999648","SITE":"AFETR","NORAD_CAT_ID":"47666","FILE":"3118781","OBJECT_TYPE":"PAYLOAD","OBJECT_NAME":"STARLINK-2057","ECCENTRICITY":"0.00017370","ELEMENT_SET_NO":"999","MEAN_MOTION_DDOT":"0.0000000000000","ARG_OF_PERICENTER":"54.5690","BSTAR":"-0.00181210000000"},{"DECAY_DATE":null,"CLASSIFICATION_TYPE":"U","EPHEMERIS_TYPE":"0","TLE_LINE2":"2 47667  53.0553 201.0469 0001875  76.9314 237.3526 15.06428357  3570","MEAN_MOTION":"15.06428357","APOAPSIS":"548.425","GP_ID":"184973637","CENTER_NAME":"EARTH","MEAN_MOTION_DOT":"-0.00029732","SEMIMAJOR_AXIS":"6925.262","REV_AT_EPOCH":"357","TLE_LINE1":"1 47667U 21012AZ  21262.00001157 -.00029732  00000-0 -19839-2 0  9990","MEAN_ANOMALY":"237.3526","MEAN_ELEMENT_THEORY":"SGP4","TIME_SYSTEM":"UTC","PERIOD":"95.590","RA_OF_ASC_NODE":"201.0469","LAUNCH_DATE":"2021-02-16","COUNTRY_CODE":"US","REF_FRAME":"TEME","RCS_SIZE":"LARGE","INCLINATION":"53.0553","OBJECT_ID":"2021-012AZ","PERIAPSIS":"545.828","EPOCH":"2021-09-19T00:00:00.999648","SITE":"AFETR","NORAD_CAT_ID":"47667","FILE":"3118781","OBJECT_TYPE":"PAYLOAD","OBJECT_NAME":"STARLINK-2058","ECCENTRICITY":"0.00018750","ELEMENT_SET_NO":"999","MEAN_MOTION_DDOT":"0.0000000000000","BSTAR":"-0.00198390000000","ARG_OF_PERICENTER":"76.9314"},{"LAUNCH_DATE":"2021-02-16","COUNTRY_CODE":"US","REF_FRAME":"TEME","RCS_SIZE":"LARGE","INCLINATION":"53.0545","OBJECT_ID":"2021-012BA","PERIAPSIS":"545.623","EPOCH":"2021-09-19T00:00:00.999648","SITE":"AFETR","NORAD_CAT_ID":"47668","FILE":"3118781","OBJECT_TYPE":"PAYLOAD","OBJECT_NAME":"STARLINK-2059","ECCENTRICITY":"0.00021860","ELEMENT_SET_NO":"999","MEAN_MOTION_DDOT":"0.0000000000000","BSTAR":"-0.00165530000000","ARG_OF_PERICENTER":"62.0211","DECAY_DATE":null,"CLASSIFICATION_TYPE":"U","EPHEMERIS_TYPE":"0","TLE_LINE2":"2 47668  53.0545 181.0603 0002186  62.0211  22.2336 15.06425012  3583","MEAN_MOTION":"15.06425012","APOAPSIS":"548.651","CENTER_NAME":"EARTH","GP_ID":"184973888","MEAN_MOTION_DOT":"-0.00024869","REV_AT_EPOCH":"358","SEMIMAJOR_AXIS":"6925.272","TLE_LINE1":"1 47668U 21012BA  21262.00001157 -.00024869  00000-0 -16553-2 0  9997","MEAN_ANOMALY":"22.2336","MEAN_ELEMENT_THEORY":"SGP4","TIME_SYSTEM":"UTC","PERIOD":"95.591","RA_OF_ASC_NODE":"181.0603"}];
